{"type": "FeatureCollection", "features": [ {"type": "Feature", "properties": {"norad_id": 34464, "name": "COSMOS 2251 DEB", "group": "cosmos-2251-debris", "lat": -70.24785466774148, "lon": -26.64301350190809, "alt_km": 486.69521431303474, "timestamp": "2025-12-02T08:59:33.109166+00:00", "meta": {"OBJECT_NAME": "COSMOS 2251 DEB", "OBJECT_ID": "1993-036TH", "EPOCH": "2025-12-01T17:41:19.975200", "MEAN_MOTION": 15.2460297, "ECCENTRICITY": 0.0017669, "INCLINATION": 73.9897, "RA_OF_ASC_NODE": 101.6087, "ARG_OF_PERICENTER": 270.4716, "MEAN_ANOMALY": 89.4459, "EPHEMERIS_TYPE": 0, "CLASSIFICATION_TYPE": "U", "NORAD_CAT_ID": 34464, "ELEMENT_SET_NO": 999, "REV_AT_EPOCH": 89672, "BSTAR": 0.0029264, "MEAN_MOTION_DOT": 0.00073186, "MEAN_MOTION_DDOT": 0}, "tle": {"line1": "1 34464U 93036TH  25335.73703675  .00073186  00000+0  29264-2 0  9997", "line2": "2 34464  73.9897 101.6087 0017669 270.4716  89.4459 15.24602970896722"}}, "geometry": {"type": "Point", "coordinates": [-26.64301350190809, -70.24785466774148]}}, {"type": "Feature", "properties": {"norad_id": 34468, "name": "COSMOS 2251 DEB", "group": "cosmos-2251-debris", "lat": 18.34348312310372, "lon": -48.832866968691924, "alt_km": 762.6502654087417, "timestamp": "2025-12-02T08:59:33.109176+00:00", "meta": {"OBJECT_NAME": "COSMOS 2251 DEB", "OBJECT_ID": "1993-036TM", "EPOCH": "2025-12-01T15:39:31.936608", "MEAN_MOTION": 14.47577624, "ECCENTRICITY": 0.0076284, "INCLINATION": 74.0112, "RA_OF_ASC_NODE": 137.9748, "ARG_OF_PERICENTER": 285.1383, "MEAN_ANOMALY": 74.1346, "EPHEMERIS_TYPE": 0, "CLASSIFICATION_TYPE": "U", "NORAD_CAT_ID": 34468, "ELEMENT_SET_NO": 999, "REV_AT_EPOCH": 88301, "BSTAR": 0.00032153, "MEAN_MOTION_DOT": 1.198e-05, "MEAN_MOTION_DDOT": 0}, "tle": {"line1": "1 34468U 93036TM  25335.65245297  .00001198  00000+0  32153-3 0  9999", "line2": "2 34468  74.0112 137.9748 0076284 285.1383  74.1346 14.47577624883010"}}, "geometry": {"type": "Point", "coordinates": [-48.832866968691924, 18.34348312310372]}}, {"type": "Feature", "properties": {"norad_id": 34472, "name": "COSMOS 2251 DEB", "group": "cosmos-2251-debris", "lat": -3.4958070900100715, "lon": -63.80586583918987, "alt_km": 892.5674667911953, "timestamp": "2025-12-02T08:59:33.109187+00:00", "meta": {"OBJECT_NAME": "COSMOS 2251 DEB", "OBJECT_ID": "1993-036TR", "EPOCH": "2025-11-30T08:45:33.274080", "MEAN_MOTION": 13.70299802, "ECCENTRICITY": 0.03272305, "INCLINATION": 74.0853, "RA_OF_ASC_NODE": 118.499, "ARG_OF_PERICENTER": 252.162, "MEAN_ANOMALY": 104.3557, "EPHEMERIS_TYPE": 0, "CLASSIFICATION_TYPE": "U", "NORAD_CAT_ID": 34472, "ELEMENT_SET_NO": 999, "REV_AT_EPOCH": 83557, "BSTAR": 0.0011470938, "MEAN_MOTION_DOT": 1.453e-05, "MEAN_MOTION_DDOT": 0}, "tle": {"line1": "1 34472U 93036TR  25334.36496845  .00001453  00000+0  11471-2 0  9991", "line2": "2 34472  74.0853 118.4990 0327230 252.1620 104.3557 13.70299802835570"}}, "geometry": {"type": "Point", "coordinates": [-63.80586583918987, -3.4958070900100715]}}, {"type": "Feature", "properties": {"norad_id": 34474, "name": "COSMOS 2251 DEB", "group": "cosmos-2251-debris", "lat": 53.61905986554195, "lon": 7.067208351610702, "alt_km": 723.5660456157984, "timestamp": "2025-12-02T08:59:33.109197+00:00", "meta": {"OBJECT_NAME": "COSMOS 2251 DEB", "OBJECT_ID": "1993-036TT", "EPOCH": "2025-12-02T02:12:14.270112", "MEAN_MOTION": 14.0630808, "ECCENTRICITY": 0.0197711, "INCLINATION": 74.0785, "RA_OF_ASC_NODE": 344.7657, "ARG_OF_PERICENTER": 61.3569, "MEAN_ANOMALY": 4.2415, "EPHEMERIS_TYPE": 0, "CLASSIFICATION_TYPE": "U", "NORAD_CAT_ID": 34474, "ELEMENT_SET_NO": 999, "REV_AT_EPOCH": 85359, "BSTAR": 0.0017121, "MEAN_MOTION_DOT": 3.347e-05, "MEAN_MOTION_DDOT": 0}, "tle": {"line1": "1 34474U 93036TT  25336.09183183  .00003347  00000+0  17121-2 0  9995", "line2": "2 34474  74.0785 344.7657 0197711  61.3569   4.2415 14.06308080853593"}}, "geometry": {"type": "Point", "coordinates": [7.067208351610702, 53.61905986554195]}}, {"type": "Feature", "properties": {"norad_id": 34476, "name": "COSMOS 2251 DEB", "group": "cosmos-2251-debris", "lat": -33.68253109832059, "lon": -69.00703462250341, "alt_km": 1023.4074770567531, "timestamp": "2025-12-02T08:59:33.109207+00:00", "meta": {"OBJECT_NAME": "COSMOS 2251 DEB", "OBJECT_ID": "1993-036TV", "EPOCH": "2025-12-01T09:20:26.803104", "MEAN_MOTION": 13.81864816, "ECCENTRICITY": 0.0318741, "INCLINATION": 74.0058, "RA_OF_ASC_NODE": 101.6327, "ARG_OF_PERICENTER": 323.7354, "MEAN_ANOMALY": 34.2529, "EPHEMERIS_TYPE": 0, "CLASSIFICATION_TYPE": "U", "NORAD_CAT_ID": 34476, "ELEMENT_SET_NO": 999, "REV_AT_EPOCH": 83481, "BSTAR": 0.0030092445, "MEAN_MOTION_DOT": 4.729e-05, "MEAN_MOTION_DDOT": 0}, "tle": {"line1": "1 34476U 93036TV  25335.38919911  .00004729  00000+0  30092-2 0  9991", "line2": "2 34476  74.0058 101.6327 0318741 323.7354  34.2529 13.81864816834816"}}, "geometry": {"type": "Point", "coordinates": [-69.00703462250341, -33.68253109832059]}}, {"type": "Feature", "properties": {"norad_id": 34477, "name": "COSMOS 2251 DEB", "group": "cosmos-2251-debris", "lat": -20.914817321227122, "lon": -84.44539227264407, "alt_km": 695.63357278283, "timestamp": "2025-12-02T08:59:33.109217+00:00", "meta": {"OBJECT_NAME": "COSMOS 2251 DEB", "OBJECT_ID": "1993-036TW", "EPOCH": "2025-12-02T02:17:21.620832", "MEAN_MOTION": 14.56728064, "ECCENTRICITY": 0.0076857, "INCLINATION": 73.9782, "RA_OF_ASC_NODE": 89.782, "ARG_OF_PERICENTER": 278.8737, "MEAN_ANOMALY": 259.5607, "EPHEMERIS_TYPE": 0, "CLASSIFICATION_TYPE": "U", "NORAD_CAT_ID": 34477, "ELEMENT_SET_NO": 999, "REV_AT_EPOCH": 88470, "BSTAR": 0.0010223, "MEAN_MOTION_DOT": 4.728e-05, "MEAN_MOTION_DDOT": 0}, "tle": {"line1": "1 34477U 93036TW  25336.09538913  .00004728  00000+0  10223-2 0  9993", "line2": "2 34477  73.9782  89.7820 0076857 278.8737 259.5607 14.56728064884706"}}, "geometry": {"type": "Point", "coordinates": [-84.44539227264407, -20.914817321227122]}}, {"type": "Feature", "properties": {"norad_id": 34478, "name": "COSMOS 2251 DEB", "group": "cosmos-2251-debris", "lat": -3.424448381623983, "lon": 27.207855198201337, "alt_km": 556.2075397516255, "timestamp": "2025-12-02T08:59:33.109227+00:00", "meta": {"OBJECT_NAME": "COSMOS 2251 DEB", "OBJECT_ID": "1993-036TX", "EPOCH": "2025-12-01T23:44:38.047200", "MEAN_MOTION": 15.06628887, "ECCENTRICITY": 0.0037414, "INCLINATION": 74.0424, "RA_OF_ASC_NODE": 28.9796, "ARG_OF_PERICENTER": 252.2856, "MEAN_ANOMALY": 174.5903, "EPHEMERIS_TYPE": 0, "CLASSIFICATION_TYPE": "U", "NORAD_CAT_ID": 34478, "ELEMENT_SET_NO": 999, "REV_AT_EPOCH": 88811, "BSTAR": 0.0033096, "MEAN_MOTION_DOT": 0.00050166, "MEAN_MOTION_DDOT": 0}, "tle": {"line1": "1 34478U 93036TX  25335.98932925  .00050166  00000+0  33096-2 0  9992", "line2": "2 34478  74.0424  28.9796 0037414 252.2856 174.5903 15.06628887888115"}}, "geometry": {"type": "Point", "coordinates": [27.207855198201337, -3.424448381623983]}}, {"type": "Feature", "properties": {"norad_id": 34481, "name": "COSMOS 2251 DEB", "group": "cosmos-2251-debris", "lat": -38.73592313616173, "lon": -94.22950496251346, "alt_km": 744.6030993860659, "timestamp": "2025-12-02T08:59:33.109238+00:00", "meta": {"OBJECT_NAME": "COSMOS 2251 DEB", "OBJECT_ID": "1993-036UA", "EPOCH": "2025-12-01T02:05:49.771104", "MEAN_MOTION": 14.32474327, "ECCENTRICITY": 0.00709817, "INCLINATION": 73.98, "RA_OF_ASC_NODE": 74.8026, "ARG_OF_PERICENTER": 251.256, "MEAN_ANOMALY": 173.7655, "EPHEMERIS_TYPE": 0, "CLASSIFICATION_TYPE": "U", "NORAD_CAT_ID": 34481, "ELEMENT_SET_NO": 999, "REV_AT_EPOCH": 87282, "BSTAR": 0.00077991727, "MEAN_MOTION_DOT": 2.146e-05, "MEAN_MOTION_DDOT": 0}, "tle": {"line1": "1 34481U 93036UA  25335.08738161  .00002146  00000+0  77992-3 0  9992", "line2": "2 34481  73.9800  74.8026 0070981 251.2560 173.7655 14.32474327872820"}}, "geometry": {"type": "Point", "coordinates": [-94.22950496251346, -38.73592313616173]}}, {"type": "Feature", "properties": {"norad_id": 34482, "name": "COSMOS 2251 DEB", "group": "cosmos-2251-debris", "lat": 63.40844426940801, "lon": 28.779189872726676, "alt_km": 689.7626786976361, "timestamp": "2025-12-02T08:59:33.109270+00:00", "meta": {"OBJECT_NAME": "COSMOS 2251 DEB", "OBJECT_ID": "1993-036UB", "EPOCH": "2025-12-02T04:06:23.961024", "MEAN_MOTION": 14.68777099, "ECCENTRICITY": 0.0045877, "INCLINATION": 74.0376, "RA_OF_ASC_NODE": 244.0481, "ARG_OF_PERICENTER": 305.9778, "MEAN_ANOMALY": 169.4054, "EPHEMERIS_TYPE": 0, "CLASSIFICATION_TYPE": "U", "NORAD_CAT_ID": 34482, "ELEMENT_SET_NO": 999, "REV_AT_EPOCH": 88032, "BSTAR": 0.0026078, "MEAN_MOTION_DOT": 0.0001546, "MEAN_MOTION_DDOT": 0}, "tle": {"line1": "1 34482U 93036UB  25336.17111066  .00015460  00000+0  26078-2 0  9994", "line2": "2 34482  74.0376 244.0481 0045877 305.9778 169.4054 14.68777099880321"}}, "geometry": {"type": "Point", "coordinates": [28.779189872726676, 63.40844426940801]}}, {"type": "Feature", "properties": {"norad_id": 34544, "name": "COSMOS 2251 DEB", "group": "cosmos-2251-debris", "lat": -53.81453786721708, "lon": -162.41974804241252, "alt_km": 878.1692166458288, "timestamp": "2025-12-02T08:59:33.109290+00:00", "meta": {"OBJECT_NAME": "COSMOS 2251 DEB", "OBJECT_ID": "1993-036UE", "EPOCH": "2025-12-02T02:58:13.055808", "MEAN_MOTION": 13.54654027, "ECCENTRICITY": 0.038478, "INCLINATION": 73.9153, "RA_OF_ASC_NODE": 221.2162, "ARG_OF_PERICENTER": 251.6007, "MEAN_ANOMALY": 264.6648, "EPHEMERIS_TYPE": 0, "CLASSIFICATION_TYPE": "U", "NORAD_CAT_ID": 34544, "ELEMENT_SET_NO": 999, "REV_AT_EPOCH": 82738, "BSTAR": 0.00020621, "MEAN_MOTION_DOT": 2.02e-06, "MEAN_MOTION_DDOT": 0}, "tle": {"line1": "1 34544U 93036UE  25336.12376222  .00000202  00000+0  20621-3 0  9992", "line2": "2 34544  73.9153 221.2162 0384780 251.6007 264.6648 13.54654027827388"}}, "geometry": {"type": "Point", "coordinates": [-162.41974804241252, -53.81453786721708]}}]}